{
  "type": "FeatureCollection",
  "features": [
    {
      "type": "Feature",
      "properties": { "Blok": "A.7", "Kategori": "Tua", "Ha": 18.9, "Warna": "#e6194b" },
      "geometry": { "type": "Polygon", "coordinates": [[[101.5, 0.5], [101.51, 0.5], [101.51, 0.51], [101.5, 0.51], [101.5, 0.5]]] }
    },
    {
      "type": "Feature",
      "properties": { "Blok": "A.8", "Kategori": "Tua", "Ha": 15.2, "Warna": "#e6194b" },
      "geometry": { "type": "Polygon", "coordinates": [[[101.51, 0.5], [101.52, 0.5], [101.52, 0.51], [101.51, 0.51], [101.51, 0.5]]] }
    },
    {
      "type": "Feature",
      "properties": { "Blok": "A.9", "Kategori": "Tua", "Ha": 16.1, "Warna": "#e6194b" },
      "geometry": { "type": "Polygon", "coordinates": [[[101.52, 0.5], [101.53, 0.5], [101.53, 0.51], [101.52, 0.51], [101.52, 0.5]]] }
    },
    {
      "type": "Feature",
      "properties": { "Blok": "A.10", "Kategori": "Tua", "Ha": 14.0, "Warna": "#e6194b" },
      "geometry": { "type": "Polygon", "coordinates": [[[101.53, 0.5], [101.54, 0.5], [101.54, 0.51], [101.53, 0.51], [101.53, 0.5]]] }
    },
    {
      "type": "Feature",
      "properties": { "Blok": "A.11", "Kategori": "Tua", "Ha": 11.3, "Warna": "#e6194b" },
      "geometry": { "type": "Polygon", "coordinates": [[[101.54, 0.5], [101.55, 0.5], [101.55, 0.51], [101.54, 0.51], [101.54, 0.5]]] }
    },
    {
      "type": "Feature",
      "properties": { "Blok": "A.12", "Kategori": "Tua", "Ha": 8.7, "Warna": "#e6194b" },
      "geometry": { "type": "Polygon", "coordinates": [[[101.55, 0.5], [101.56, 0.5], [101.56, 0.51], [101.55, 0.51], [101.55, 0.5]]] }
    },
    {
      "type": "Feature",
      "properties": { "Blok": "B.1", "Kategori": "Sedang", "Ha": 12.0, "Warna": "#3cb44b" },
      "geometry": { "type": "Polygon", "coordinates": [[[101.5, 0.51], [101.51, 0.51], [101.51, 0.52], [101.5, 0.52], [101.5, 0.51]]] }
    },
    {
      "type": "Feature",
      "properties": { "Blok": "B.2", "Kategori": "Sedang", "Ha": 13.5, "Warna": "#3cb44b" },
      "geometry": { "type": "Polygon", "coordinates": [[[101.51, 0.51], [101.52, 0.51], [101.52, 0.52], [101.51, 0.52], [101.51, 0.51]]] }
    },
    {
      "type": "Feature",
      "properties": { "Blok": "B.3", "Kategori": "Sedang", "Ha": 12.8, "Warna": "#3cb44b" },
      "geometry": { "type": "Polygon", "coordinates": [[[101.52, 0.51], [101.53, 0.51], [101.53, 0.52], [101.52, 0.52], [101.52, 0.51]]] }
    },
    {
      "type": "Feature",
      "properties": { "Blok": "B.4", "Kategori": "Sedang", "Ha": 12.2, "Warna": "#3cb44b" },
      "geometry": { "type": "Polygon", "coordinates": [[[101.53, 0.51], [101.54, 0.51], [101.54, 0.52], [101.53, 0.52], [101.53, 0.51]]] }
    },
    {
      "type": "Feature",
      "properties": { "Blok": "B.5", "Kategori": "Sedang", "Ha": 12.4, "Warna": "#3cb44b" },
      "geometry": { "type": "Polygon", "coordinates": [[[101.54, 0.51], [101.55, 0.51], [101.55, 0.52], [101.54, 0.52], [101.54, 0.51]]] }
    },
    {
      "type": "Feature",
      "properties": { "Blok": "B.6", "Kategori": "Sedang", "Ha": 12.1, "Warna": "#3cb44b" },
      "geometry": { "type": "Polygon", "coordinates": [[[101.55, 0.51], [101.56, 0.51], [101.56, 0.52], [101.55, 0.52], [101.55, 0.51]]] }
    }
  ]
}
